NORAD_CAT_ID,OBJECT_NAME,OBJECT_TYPE,EPOCH,MEAN_MOTION,ECCENTRICITY,INCLINATION,RA_OF_ASC_NODE,ARG_OF_PERICENTER,MEAN_ANOMALY,BSTAR,MEAN_MOTION_DOT,MEAN_MOTION_DDOT,TLE_LINE0,TLE_LINE1,TLE_LINE2,SEMIMAJOR_AXIS,PERIOD,APOGEE,PERIGEE,DECAYED
52331.0,STARLINK-3889,PAYLOAD,2023-03-28 23:33:12,15.08859268,0.0001284,53.2176,2.6508,96.0848,264.029,0.0015467,0.00024426,0.0,0 STARLINK-3889,1 52331U 22045A   23087.98139928  .00024426  00000-0  15467-2 0  9999,2 52331  53.2176   2.6508 0001284  96.0848 264.0290 15.08859268 53093,6917.821,95.436,540.575,538.798,0.0
52331.0,STARLINK-3889,PAYLOAD,2023-03-29 01:08:35,15.08861164,0.0001248,53.2177,2.3536,89.9958,270.1177,0.0016055,0.00025371,0.0,0 STARLINK-3889,1 52331U 22045A   23088.04763868  .00025371  00000-0  16055-2 0  9997,2 52331  53.2177   2.3536 0001248  89.9958 270.1177 15.08861164 53107,6917.816,95.436,540.544,538.817,0.0
52331.0,STARLINK-3889,PAYLOAD,2023-03-29 23:24:00,15.08858319,0.0001273,53.2179,358.1905,105.9165,254.1967,0.001656,0.00026179,0.0,0 STARLINK-3889,1 52331U 22045A   23088.97500024  .00026179  00000-0  16560-2 0  9990,2 52331  53.2179 358.1905 0001273 105.9165 254.1967 15.08858319 53240,6917.824,95.436,540.57,538.809,0.0
52331.0,STARLINK-3889,PAYLOAD,2023-03-30 10:31:42,15.08844403,0.0001346,53.218,356.1098,104.1677,255.9465,0.00088394,0.0001381,0.0,0 STARLINK-3889,1 52331U 22045A   23089.43868102  .00013810  00000-0  88394-3 0  9999,2 52331  53.2180 356.1098 0001346 104.1677 255.9465 15.08844403 53312,6917.867,95.437,540.663,538.801,0.0
52331.0,STARLINK-3889,PAYLOAD,2023-04-01 02:16:20,15.08841964,0.0001117,53.2175,348.6759,128.9502,231.159,0.00047835,7.334e-05,0.0,0 STARLINK-3889,1 52331U 22045A   23091.09468294  .00007334  00000-0  47835-3 0  9991,2 52331  53.2175 348.6759 0001117 128.9502 231.1590 15.08841964 53564,6917.874,95.437,540.512,538.967,0.0
52331.0,STARLINK-3889,PAYLOAD,2023-04-01 22:56:20,15.08865185,0.0001058,53.2179,344.8099,79.5123,280.5988,0.00093723,0.0001467,0.0,0 STARLINK-3889,1 52331U 22045A   23091.95579785  .00014670  00000-0  93723-3 0  9992,2 52331  53.2179 344.8099 0001058  79.5123 280.5988 15.08865185 53691,6917.803,95.436,540.4,538.937,0.0
52331.0,STARLINK-3889,PAYLOAD,2023-04-02 00:31:45,15.08844968,0.0001316,53.2174,344.512,81.4716,278.6425,0.0014616,0.00023053,0.0,0 STARLINK-3889,1 52331U 22045A   23092.02204983  .00023053  00000-0  14616-2 0  9994,2 52331  53.2174 344.5120 0001316  81.4716 278.6425 15.08844968 53707,6917.865,95.437,540.641,538.82,0.0
52331.0,STARLINK-3889,PAYLOAD,2023-04-02 21:11:45,15.08838969,0.0001106,53.2179,340.6453,92.4607,267.6512,0.00026415,3.918e-05,0.0,0 STARLINK-3889,1 52331U 22045A   23092.88317116  .00003918  00000-0  26415-3 0  9990,2 52331  53.2179 340.6453 0001106  92.4607 267.6512 15.08838969 53839,6917.884,95.438,540.514,538.983,0.0
52331.0,STARLINK-3889,PAYLOAD,2023-04-02 22:47:09,15.08838435,0.0001131,53.2174,340.3489,82.5304,277.5816,0.000218,3.183e-05,0.0,0 STARLINK-3889,1 52331U 22045A   23092.94941197  .00003183  00000-0  21800-3 0  9996,2 52331  53.2174 340.3489 0001131  82.5304 277.5816 15.08838435 53848,6917.885,95.438,540.533,538.968,0.0
52331.0,STARLINK-3889,PAYLOAD,2023-04-03 01:57:55,15.08841314,0.0001145,53.2172,339.7538,83.653,276.4593,0.00025488,3.771e-05,0.0,0 STARLINK-3889,1 52331U 22045A   23093.08189108  .00003771  00000-0  25488-3 0  9997,2 52331  53.2172 339.7538 0001145  83.6530 276.4593 15.08841314 53863,6917.876,95.437,540.533,538.949,0.0
52331.0,STARLINK-3889,PAYLOAD,2023-04-03 21:02:33,15.08844449,0.0001183,53.2167,336.1857,81.1774,278.9352,0.00024027,3.539e-05,0.0,0 STARLINK-3889,1 52331U 22045A   23093.87677218  .00003539  00000-0  24027-3 0  9998,2 52331  53.2167 336.1857 0001183  81.1774 278.9352 15.08844449 53982,6917.867,95.437,540.55,538.913,0.0
52331.0,STARLINK-3889,PAYLOAD,2023-04-04 01:48:42,15.08848277,0.0001176,53.2164,335.2924,96.7556,263.357,0.00052367,8.058e-05,0.0,0 STARLINK-3889,1 52331U 22045A   23094.07549117  .00008058  00000-0  52367-3 0  9996,2 52331  53.2164 335.2924 0001176  96.7556 263.3570 15.08848277 54014,6917.855,95.437,540.534,538.907,0.0
52331.0,STARLINK-3889,PAYLOAD,2023-04-04 20:53:19,15.08846301,0.0001571,53.2165,331.7211,112.7618,247.354,0.00019365,2.796e-05,0.0,0 STARLINK-3889,1 52331U 22045A   23094.87036810  .00002796  00000-0  19365-3 0  9999,2 52331  53.2165 331.7211 0001571 112.7618 247.3540 15.08846301 54130,6917.861,95.437,540.813,538.639,0.0
52331.0,STARLINK-3889,PAYLOAD,2023-04-05 01:39:29,15.08848265,0.0001192,53.2167,330.8323,91.3951,268.7177,0.00021718,3.171e-05,0.0,0 STARLINK-3889,1 52331U 22045A   23095.06908841  .00003171  00000-0  21718-3 0  9996,2 52331  53.2167 330.8323 0001192  91.3951 268.7177 15.08848265 54164,6917.855,95.437,540.545,538.896,0.0
52331.0,STARLINK-3889,PAYLOAD,2023-04-05 20:44:07,15.08839277,0.0001242,53.2169,327.2618,104.3462,255.7668,-3.7363e-05,-8.82e-06,0.0,0 STARLINK-3889,1 52331U 22045A   23095.86397099 -.00000882  00000-0 -37363-4 0  9993,2 52331  53.2169 327.2618 0001242 104.3462 255.7668 15.08839277 54288,6917.883,95.438,540.607,538.888,0.0
52331.0,STARLINK-3889,PAYLOAD,2023-04-05 22:19:30,15.08842619,0.0001046,53.2166,326.9686,91.5563,268.5549,-4.8309e-05,-1.057e-05,0.0,0 STARLINK-3889,1 52331U 22045A   23095.93020924 -.00001057  00000-0 -48309-4 0  9998,2 52331  53.2166 326.9686 0001046  91.5563 268.5549 15.08842619 54292,6917.872,95.437,540.461,539.014,0.0
52331.0,STARLINK-3889,PAYLOAD,2023-04-06 01:30:16,15.08842001,0.0001081,53.2166,326.3731,90.3086,269.803,3.9289e-05,3.38e-06,0.0,0 STARLINK-3889,1 52331U 22045A   23096.06268932  .00000338  00000-0  39289-4 0  9992,2 52331  53.2166 326.3731 0001081  90.3086 269.8030 15.08842001 54310,6917.874,95.437,540.487,538.991,0.0
52331.0,STARLINK-3889,PAYLOAD,2023-04-06 22:10:17,15.08839719,0.0001067,53.2162,322.5073,93.2336,266.8778,8.5034e-05,1.066e-05,0.0,0 STARLINK-3889,1 52331U 22045A   23096.92381291  .00001066  00000-0  85034-4 0  9999,2 52331  53.2162 322.5073 0001067  93.2336 266.8778 15.08839719 54449,6917.881,95.438,540.484,539.008,0.0
52331.0,STARLINK-3889,PAYLOAD,2023-04-06 23:45:40,15.08840771,0.0001091,53.2162,322.2099,92.2968,267.8149,0.00010904,1.448e-05,0.0,0 STARLINK-3889,1 52331U 22045A   23096.99005270  .00001448  00000-0  10904-3 0  9993,2 52331  53.2162 322.2099 0001091  92.2968 267.8149 15.08840771 54455,6917.878,95.438,540.498,538.988,0.0
52331.0,STARLINK-3889,PAYLOAD,2023-04-07 23:36:27,15.08840758,0.0001066,53.2164,317.7488,82.9619,277.1494,9.3231e-05,1.196e-05,0.0,0 STARLINK-3889,1 52331U 22045A   23097.98365420  .00001196  00000-0  93231-4 0  9994,2 52331  53.2164 317.7488 0001066  82.9619 277.1494 15.08840758 54608,6917.878,95.438,540.481,539.006,0.0
52331.0,STARLINK-3889,PAYLOAD,2023-04-08 18:41:05,15.08838722,0.0001079,53.2162,314.179,82.5097,277.6018,8.7097e-05,1.099e-05,0.0,0 STARLINK-3889,1 52331U 22045A   23098.77853623  .00001099  00000-0  87097-4 0  9994,2 52331  53.2162 314.1790 0001079  82.5097 277.6018 15.08838722 54721,6917.884,95.438,540.496,539.003,0.0
52331.0,STARLINK-3889,PAYLOAD,2023-04-09 01:02:37,15.08842857,0.0001137,53.2165,312.9899,83.0814,277.0308,0.00013803,1.91e-05,0.0,0 STARLINK-3889,1 52331U 22045A   23099.04349441  .00001910  00000-0  13803-3 0  9998,2 52331  53.2165 312.9899 0001137  83.0814 277.0308 15.08842857 54762,6917.872,95.437,540.523,538.95,0.0
52331.0,STARLINK-3889,PAYLOAD,2023-04-09 20:07:15,15.08842496,0.0001264,53.2169,309.4215,77.433,282.6804,0.00014142,1.964e-05,0.0,0 STARLINK-3889,1 52331U 22045A   23099.83837547  .00001964  00000-0  14142-3 0  9990,2 52331  53.2169 309.4215 0001264  77.4330 282.6804 15.08842496 54885,6917.873,95.437,540.612,538.863,0.0
52331.0,STARLINK-3889,PAYLOAD,2023-04-10 13:36:30,15.08843384,0.0001028,53.2161,306.1505,106.204,253.9065,7.7602e-05,9.48e-06,0.0,0 STARLINK-3889,1 52331U 22045A   23100.56701537  .00000948  00000-0  77602-4 0  9994,2 52331  53.2161 306.1505 0001028 106.2040 253.9065 15.08843384 54999,6917.87,95.437,540.446,539.024,0.0
52331.0,STARLINK-3889,PAYLOAD,2023-04-10 19:58:02,15.08842638,0.0001,53.2159,304.9609,102.9204,257.19,6.4814e-05,7.44e-06,0.0,0 STARLINK-3889,1 52331U 22045A   23100.83197595  .00000744  00000-0  64814-4 0  9992,2 52331  53.2159 304.9609 0001000 102.9204 257.1900 15.08842638 55033,6917.872,95.437,540.429,539.046,0.0
52331.0,STARLINK-3889,PAYLOAD,2023-04-11 13:27:17,15.08838731,0.0001058,53.2173,301.692,92.8093,267.302,0.00011011,1.465e-05,0.0,0 STARLINK-3889,1 52331U 22045A   23101.56061961  .00001465  00000-0  11011-3 0  9991,2 52331  53.2173 301.6920 0001058  92.8093 267.3020 15.08838731 55142,6917.884,95.438,540.481,539.017,0.0
52331.0,STARLINK-3889,PAYLOAD,2023-04-12 13:18:04,15.08839656,0.0001432,53.2145,297.23,89.3389,270.7767,0.00012204,1.655e-05,0.0,0 STARLINK-3889,1 52331U 22045A   23102.55421965  .00001655  00000-0  12204-3 0  9991,2 52331  53.2145 297.2300 0001432  89.3389 270.7767 15.08839656 55297,6917.881,95.438,540.737,538.756,0.0
52331.0,STARLINK-3889,PAYLOAD,2023-04-12 19:39:36,15.08844093,0.0001514,53.2142,296.0401,93.9578,266.1587,0.0001642,2.327e-05,0.0,0 STARLINK-3889,1 52331U 22045A   23102.81917707  .00002327  00000-0  16420-3 0  9995,2 52331  53.2142 296.0401 0001514  93.9578 266.1587 15.08844093 55330,6917.868,95.437,540.78,538.686,0.0
52331.0,STARLINK-3889,PAYLOAD,2023-04-12 22:50:23,15.08846421,0.0001262,53.2154,295.4463,94.1582,265.9554,8.8215e-05,1.117e-05,0.0,0 STARLINK-3889,1 52331U 22045A   23102.95165565  .00001117  00000-0  88215-4 0  9995,2 52331  53.2154 295.4463 0001262  94.1582 265.9554 15.08846421 55352,6917.861,95.437,540.599,538.853,0.0
52331.0,STARLINK-3889,PAYLOAD,2023-04-13 19:30:21,15.08866904,7.68e-05,53.2121,291.5827,115.9016,244.2055,0.00037447,5.681e-05,0.0,0 STARLINK-3889,1 52331U 22045A   23103.81275375  .00005681  00000-0  37447-3 0  9992,2 52331  53.2121 291.5827 0000768 115.9016 244.2055 15.08866904 55489,6917.798,95.436,540.194,539.132,0.0
